[Satellite]
VERSION=1.1
NAME=CHINASAT 9
NICKNAME=CHINASAT 9
TLE1=1 33051U 08028A   15055.07776304 -.00000273  00000-0  00000+0 0  9992
TLE2=2 33051   0.0066 168.2089 0003683 176.4709 289.1144  1.00269672 24596
